STARLINK-3048           
1 49148C 21082U   26103.05812500  .00061219  00000+0  52388-2 0  1035
2 49148  70.0021 188.6803 0003455 267.2062  61.5559 14.97489370    18
STARLINK-3102           
1 49151C 21082X   26103.07062500  .00061143  00000+0  51238-2 0  1037
2 49151  70.0015 167.7624 0003401 266.7018 345.0953 14.98300280    11
STARLINK-3072           
1 49153C 21082Z   26103.04631944  .00063570  00000+0  53274-2 0  1038
2 49153  70.0014 167.8305 0003333 268.0863 257.6470 14.98297873    11
STARLINK-3068           
1 49154C 21082AA  26103.02756944  .00039598  00000+0  33883-2 0  1032
2 49154  70.0022 188.7605 0003514 268.9248 277.6211 14.97503015    15
STARLINK-3060           
1 49155C 21082AB  26103.04840278  .00064827  00000+0  54338-2 0  1030
2 49155  70.0013 167.8175 0003658 264.5164 294.9909 14.98289216    15
STARLINK-3085           
1 49156C 21082AC  26103.01993056  .00064196  00000+0  53799-2 0  1030
2 49156  70.0016 167.8899 0003713 266.6850 251.7228 14.98297009    13
STARLINK-3051           
1 49157C 21082AD  26103.06020833  .00067336  00000+0  47477-2 0  1035
2 49157  69.9987 184.2353 0006046 237.8514 220.0828 15.04854700    15
STARLINK-3083           
1 49158C 21082AE  26103.00534722  .00005795  00000+0  50667-4 0  1035
2 49158  69.9644  77.4320 0003610 216.6711 273.3812 15.68702800    18
STARLINK-3056           
1 49159C 21082AF  26103.01993056 -.00000272  00000+0 -22783-4 0  1031
2 49159  70.0015 207.8941 0003271 271.2005 177.2228 14.98336527    12
STARLINK-3095           
1 49160C 21082AG  26103.07131944  .00032908  00000+0  27580-2 0  1036
2 49160  70.0015 207.7470 0003604 267.1765 165.8745 14.98309576    18
STARLINK-3080           
1 49161C 21082AH  26102.99909722 -.00024629  00000+0 -20644-2 0  1020
2 49161  70.0014 207.9256 0003709 269.2403 111.8605 14.98333315    14
STARLINK-3088           
1 49163C 21082AK  26103.02895833  .00042813  00000+0  36635-2 0  1035
2 49163  70.0021 188.7678 0003536 267.3753 354.1676 14.97500101    11
STARLINK-3106           
1 49164C 21082AL  26103.09979167  .00069050  00000+0  57869-2 0  1030
2 49164  70.0019 187.6910 0003242 267.2743 163.0540 14.98293783    11
STARLINK-3052           
1 49165C 21082AM  26103.05118056  .00017499  00000+0  14667-2 0  1038
2 49165  70.0016 207.8294 0003258 270.0289  76.9092 14.98315858    15
STARLINK-3089           
1 49166C 21082AN  26103.04076389  .00051829  00000+0  44352-2 0  1039
2 49166  70.0021 188.7418 0003421 267.9126  79.7657 14.97494240    14
STARLINK-3054           
1 49167C 21082AP  26102.97965278 -.00037067  00000+0 -31063-2 0  1029
2 49167  70.0016 207.9884 0003260 270.9604  95.2488 14.98349222    11
STARLINK-3046           
1 49169C 21082AR  26103.09562500  .00068623  00000+0  57511-2 0  1033
2 49169  70.0018 187.7141 0003363 267.5881 162.7744 14.98294218    18
STARLINK-3107           
1 49171C 21082AT  26103.02409722  .00026396  00000+0  15215-2 0  1031
2 49171  69.9927 199.5943 0006078 231.9314 251.6646 15.12265565    19
STARLINK-3045           
1 49173C 21082AV  26103.07687500  .00067480  00000+0  56549-2 0  1034
2 49173  70.0020 187.7439 0003186 267.4336 129.3189 14.98297275    11
STARLINK-3087           
1 49175C 21082AX  26103.02965278  .00038768  00000+0  33177-2 0  1031
2 49175  70.0020 188.9021 0003405 268.4001 217.9658 14.97498774    18
STARLINK-3069           
1 49176C 21082AY  26103.10673611  .00049311  00000+0  41317-2 0  1039
2 49176  70.0015 167.6748 0003147 268.7829 200.2288 14.98312706    12
STARLINK-3103           
1 49177C 21082AZ  26103.03034722  .00070780  00000+0  59319-2 0  1031
2 49177  70.0017 167.8781 0003329 267.1452  37.4255 14.98292750    11
STARLINK-3086           
1 49178C 21082BA  26103.07479167  .00036577  00000+0  30657-2 0  1032
2 49178  70.0015 207.7433 0003608 269.2495 137.5264 14.98304827    19
STARLINK-3043           
1 49179C 21082BB  26103.03243056  .00069721  00000+0  58437-2 0  1038
2 49179  70.0019 167.8550 0003242 267.9595 115.3868 14.98290070    18
STARLINK-3059           
1 49181C 21082BD  26102.98590278 -.00033630  00000+0 -28185-2 0  1023
2 49181  70.0015 207.9814 0003245 271.2058 106.2182 14.98345394    19
STARLINK-3151           
1 49408C 21104A   26103.08104167  .00413210  00000+0  46257-2 0  1035
2 49408  53.2173  64.5637 0001161  72.9393  50.7898 15.61865303    17
STARLINK-3075           
1 49409C 21104B   26103.05395833 -.00041112  00000+0 -25781-2 0  1034
2 49409  53.2147  74.8525 0001431  91.4804 349.9047 15.08858398    18
STARLINK-3147           
1 49410C 21104C   26103.00881944 -.00020889  00000+0 -13099-2 0  1031
2 49410  53.2152  75.0635 0001422  96.2682 134.5714 15.08849394    13
STARLINK-3162           
1 49411C 21104D   26103.05604167 -.00029743  00000+0 -18649-2 0  1031
2 49411  53.2152  64.8436 0001498  87.0428  80.6599 15.08856793    11
STARLINK-3157           
1 49413C 21104F   26103.07548611 -.00033660  00000+0 -21105-2 0  1030
2 49413  53.2151  64.7664 0001446  86.7764 201.3826 15.08858525    16
STARLINK-3146           
1 49414C 21104G   26103.05187500 -.00034923  00000+0 -21897-2 0  1036
2 49414  53.2155  74.8601 0001389  92.5381  37.5199 15.08859085    14
STARLINK-3159           
1 49415C 21104H   26103.09354167 -.00030561  00000+0 -19166-2 0  1036
2 49415  53.2151  64.6763 0001464  86.9401 324.5548 15.08850709    12
STARLINK-3133           
1 49416C 21104J   26103.02270833 -.00028418  00000+0 -17818-2 0  1037
2 49416  53.2155  74.9919 0001379  91.5604 279.9892 15.08857503    10
STARLINK-3154           
1 49417C 21104K   26103.10534722 -.00026069  00000+0 -16343-2 0  1039
2 49417  53.2158  64.2746 0001114  51.8691 264.0058 15.08862149    17
STARLINK-3111           
1 49418C 21104L   26103.07201389 -.00031921  00000+0 -20021-2 0  1037
2 49418  53.2155  74.7705 0001330  87.0922 212.4253 15.08846660    18
STARLINK-3120           
1 49419C 21104M   26103.06993056 -.00031275  00000+0 -19612-2 0  1032
2 49419  53.2155  74.7808 0001441  88.7959 259.3990 15.08854058    12
STARLINK-3110           
1 49420C 21104N   26103.10256944 -.00031905  00000+0 -20009-2 0  1039
2 49420  53.2156  74.6345 0001436  87.3002  38.2818 15.08850441    13
STARLINK-3112           
1 49421C 21104P   26103.02826389 -.00023857  00000+0 -14957-2 0  1039
2 49421  53.2150  74.7747 0001377  94.5594 167.1843 15.08858217    14
STARLINK-3161           
1 49422C 21104Q   26103.09770833 -.00030718  00000+0 -19262-2 0  1037
2 49422  53.2146  74.9742 0001931  85.0767 228.6508 15.08853559    15
STARLINK-3135           
1 49424C 21104S   26103.04770833 -.00031414  00000+0 -19697-2 0  1030
2 49424  53.2156  74.8815 0001416  87.8723 159.5453 15.08857525    16
STARLINK-3139           
1 49425C 21104T   26103.08451389 -.00028544  00000+0 -17903-2 0  1035
2 49425  53.2150  74.7271 0001464  86.4788  75.6606 15.08843595    15
STARLINK-3114           
1 49426C 21104U   26103.01854167 -.00022604  00000+0 -14173-2 0  1037
2 49426  53.2154  75.0113 0001581  89.4403  39.4579 15.08854386    13
STARLINK-3131           
1 49427C 21104V   26103.07826389 -.00035947  00000+0 -22541-2 0  1031
2 49427  53.2151  74.7535 0001442  88.7873  59.4903 15.08857432    12
STARLINK-3121           
1 49428C 21104W   26103.09354167 -.00032225  00000+0 -20206-2 0  1036
2 49428  53.2151  74.5867 0001432  89.6726 246.8845 15.08856886    14
STARLINK-3138           
1 49430C 21104Y   26103.05326389 -.00031123  00000+0 -19515-2 0  1037
2 49430  53.2155  75.1353 0001686  84.0076 168.2196 15.08856281    11
STARLINK-3153           
1 49431C 21104Z   26103.02826389 -.00031538  00000+0 -19773-2 0  1036
2 49431  53.2153  75.1494 0001503  86.9884 294.6297 15.08861114    19
STARLINK-3158           
1 49432C 21104AA  26103.06784722 -.00030801  00000+0 -19319-2 0  1033
2 49432  53.2149  64.7895 0001290  94.9533 211.6781 15.08845667    19
STARLINK-3079           
1 49433C 21104AB  26103.01298611 -.00029683  00000+0 -18612-2 0  1037
2 49433  53.2164  55.0375 0001641  85.6236 283.0808 15.08856316    16
STARLINK-3134           
1 49434C 21104AC  26103.10395833 -.00028197  00000+0 -17678-2 0  1032
2 49434  53.2152  74.7873 0001622  89.5868 163.3643 15.08859231    14
STARLINK-3117           
1 49435C 21104AD  26103.03312500 -.00042687  00000+0 -26765-2 0  1032
2 49435  53.2165  54.9473 0001776  87.8805   5.0761 15.08863008    17
STARLINK-3049           
1 49436C 21104AE  26103.07201389 -.00036486  00000+0 -22879-2 0  1031
2 49436  53.2165  54.7733 0001495  87.2107 222.2970 15.08856972    19
STARLINK-3130           
1 49437C 21104AF  26103.05465278 -.00036892  00000+0 -23128-2 0  1038
2 49437  53.2161  54.8507 0001302  75.8341 179.2877 15.08866898    11
STARLINK-3044           
1 49438C 21104AG  26103.02340278 -.00030210  00000+0 -18949-2 0  1031
2 49438  53.2159  54.9241 0001535  84.0437  56.0948 15.08843731    13
STARLINK-3105           
1 49440C 21104AJ  26103.01645833 -.00031198  00000+0 -19560-2 0  1034
2 49440  53.2157  55.0213 0001468  87.5244   0.0482 15.08859986    15
STARLINK-3128           
1 49441C 21104AK  26103.02687500 -.00034070  00000+0 -21365-2 0  1031
2 49441  53.2153  54.9722 0001374  95.1124 149.0521 15.08855013    18
STARLINK-3098           
1 49442C 21104AL  26103.02618056 -.00029542  00000+0 -18524-2 0  1033
2 49442  53.2157  54.9779 0001446  88.8157  71.6001 15.08855071    17
STARLINK-3136           
1 49443C 21104AM  26103.05812500 -.00030666  00000+0 -19185-2 0  1030
2 49443  53.2154  54.8330 0001057  88.4275 345.9059 15.08938364    19
STARLINK-3126           
1 49444C 21104AN  26103.08659722 -.00047122  00000+0 -29546-2 0  1036
2 49444  53.2155  54.7166 0001548  83.9561  59.6056 15.08864794    11
STARLINK-3122           
1 49445C 21104AP  26103.05812500 -.00031826  00000+0 -19955-2 0  1036
2 49445  53.2157  65.2290 0001584  86.3708 347.1892 15.08856993    14
